[{"OBJECT_NAME":"SHIJIAN-6 03A (SJ-6 03A)","OBJECT_ID":"2008-053A","EPOCH":"2026-03-10T00:26:18.438144","MEAN_MOTION":15.16068555,"ECCENTRICITY":0.00114273,"INCLINATION":97.8536,"RA_OF_ASC_NODE":98.9107,"ARG_OF_PERICENTER":1.7438,"MEAN_ANOMALY":358.3831,"EPHEMERIS_TYPE":0,"CLASSIFICATION_TYPE":"U","NORAD_CAT_ID":33408,"ELEMENT_SET_NO":999,"REV_AT_EPOCH":94793,"BSTAR":0.00035321357,"MEAN_MOTION_DOT":6.737e-5,"MEAN_MOTION_DDOT":0},{"OBJECT_NAME":"STARLINK-2588","OBJECT_ID":"2021-038AX","EPOCH":"2026-03-09T22:36:04.296960","MEAN_MOTION":15.15106652,"ECCENTRICITY":0.00059986,"INCLINATION":53.0735,"RA_OF_ASC_NODE":337.743,"ARG_OF_PERICENTER":113.5514,"MEAN_ANOMALY":246.611,"EPHEMERIS_TYPE":0,"CLASSIFICATION_TYPE":"U","NORAD_CAT_ID":48398,"ELEMENT_SET_NO":999,"REV_AT_EPOCH":26860,"BSTAR":0.0020267128,"MEAN_MOTION_DOT":0.00038318,"MEAN_MOTION_DDOT":0}]
